$$SOE
2460154.500000000, A.D. 2023-Jul-29 00:00:00.0000, -1.815243344582685E+08, 4.073284434732741E+08, -8.884179737993741E+07,
2460161.500000000, A.D. 2023-Aug-05 00:00:00.0000, -1.897626335095011E+08, 4.023352627212956E+08, -8.862456009693734E+07,
2460168.500000000, A.D. 2023-Aug-12 00:00:00.0000, -1.979022302862732E+08, 3.971327661454069E+08, -8.836121322552530E+07,
2460175.500000000, A.D. 2023-Aug-19 00:00:00.0000, -2.059380996731559E+08, 3.917220666686928E+08, -8.805153950823174E+07,
2460182.500000000, A.D. 2023-Aug-26 00:00:00.0000, -2.138651732585921E+08, 3.861043666414464E+08, -8.769533439150223E+07,
2460189.500000000, A.D. 2023-Sep-02 00:00:00.0000, -2.216783389158398E+08, 3.802809612470017E+08, -8.729240660032254E+07,
2460196.500000000, A.D. 2023-Sep-09 00:00:00.0000, -2.293724404702849E+08, 3.742532419544675E+08, -8.684257876125880E+07,
2460203.500000000, A.D. 2023-Sep-16 00:00:00.0000, -2.369422772942888E+08, 3.680226999636933E+08, -8.634568809540823E+07,
2460210.500000000, A.D. 2023-Sep-23 00:00:00.0000, -2.443826034235947E+08, 3.615909299323065E+08, -8.580158719731635E+07,
2460217.500000000, A.D. 2023-Sep-30 00:00:00.0000, -2.516881265466960E+08, 3.549596351787194E+08, -8.521014477296492E+07,
2460224.500000000, A.D. 2023-Oct-07 00:00:00.0000, -2.588535092336063E+08, 3.481306338226107E+08, -8.457124616745508E+07,
2460231.500000000, A.D. 2023-Oct-14 00:00:00.0000, -2.658733713751906E+08, 3.411058625529527E+08, -8.388479404979846E+07,
2460238.500000000, A.D. 2023-Oct-21 00:00:00.0000, -2.727422906170876E+08, 3.338873796259722E+08, -8.315070942003840E+07,
2460245.500000000, A.D. 2023-Oct-28 00:00:00.0000, -2.794548022295799E+08, 3.264773693546752E+08, -8.236893262513164E+07,
2460252.500000000, A.D. 2023-Nov-04 00:00:00.0000, -2.860053996801097E+08, 3.188781473229474E+08, -8.153942433430913E+07,
2460259.500000000, A.D. 2023-Nov-11 00:00:00.0000, -2.923885357470245E+08, 3.110921657261171E+08, -8.066216654079589E+07,
2460266.500000000, A.D. 2023-Nov-18 00:00:00.0000, -2.985986239722355E+08, 3.031220187742226E+08, -7.973716361657560E+07,
2460273.500000000, A.D. 2023-Nov-25 00:00:00.0000, -3.046300403978878E+08, 2.949704481804132E+08, -7.876444342621168E+07,
2460280.500000000, A.D. 2023-Dec-02 00:00:00.0000, -3.104771255771098E+08, 2.866403487218720E+08, -7.774405850395536E+07,
2460287.500000000, A.D. 2023-Dec-09 00:00:00.0000, -3.161341867999405E+08, 2.781347738108215E+08, -7.667608730622843E+07,
2460294.500000000, A.D. 2023-Dec-16 00:00:00.0000, -3.215955002675706E+08, 2.694569410822003E+08, -7.556063556467167E+07,
2460301.500000000, A.D. 2023-Dec-23 00:00:00.0000, -3.268553128901291E+08, 2.606102386776711E+08, -7.439783771583509E+07,
2460308.500000000, A.D. 2023-Dec-30 00:00:00.0000, -3.319078450757362E+08, 2.515982332673341E+08, -7.318785820043442E+07,
2460315.500000000, A.D. 2024-Jan-06 00:00:00.0000, -3.367472963129503E+08, 2.424246774425343E+08, -7.193089266545740E+07,
2460322.500000000, A.D. 2024-Jan-13 00:00:00.0000, -3.413678504005874E+08, 2.330935146662168E+08, -7.062716950946961E+07,
2460329.500000000, A.D. 2024-Jan-20 00:00:00.0000, -3.457636791274943E+08, 2.236088848530202E+08, -6.927695163100576E+07,
2460336.500000000, A.D. 2024-Jan-27 00:00:00.0000, -3.499289464615925E+08, 2.139751312171248E+08, -6.788053814129375E+07,
2460343.500000000, A.D. 2024-Feb-03 00:00:00.0000, -3.538578137075807E+08, 2.041968074248065E+08, -6.643826608007452E+07,
2460350.500000000, A.D. 2024-Feb-10 00:00:00.0000, -3.575444453858643E+08, 1.942786847426041E+08, -6.495051218282853E+07,
2460357.500000000, A.D. 2024-Feb-17 00:00:00.0000, -3.609830157243735E+08, 1.842257591669647E+08, -6.341769470961666E+07,
2460364.500000000, A.D. 2024-Feb-24 00:00:00.0000, -3.641677157584500E+08, 1.740432585244433E+08, -6.184027533514769E+07,
2460371.500000000, A.D. 2024-Mar-02 00:00:00.0000, -3.670927610410982E+08, 1.637366494803643E+08, -6.021876110231369E+07,
2460378.500000000, A.D. 2024-Mar-09 00:00:00.0000, -3.697523998569593E+08, 1.533116443592952E+08, -5.855370645335428E+07,
2460385.500000000, A.D. 2024-Mar-16 00:00:00.0000, -3.721409215773627E+08, 1.427742079363896E+08, -5.684571535453664E+07,
2460392.500000000, A.D. 2024-Mar-23 00:00:00.0000, -3.742526652932469E+08, 1.321305652658541E+08, -5.509544340952096E+07,
2460399.500000000, A.D. 2024-Mar-30 00:00:00.0000, -3.760820310018171E+08, 1.213872104727575E+08, -5.330359975328588E+07,
2460406.500000000, A.D. 2024-Apr-06 00:00:00.0000, -3.776234931264706E+08, 1.105509130914800E+08, -5.147094902043295E+07,
2460413.500000000, A.D. 2024-Apr-13 00:00:00.0000, -3.788716128489838E+08, 9.962872273478831E+07, -4.959831363797699E+07,
2460420.500000000, A.D. 2024-Apr-20 00:00:00.0000, -3.798210502311562E+08, 8.862797470888732E+07, -4.768657612677715E+07,
2460427.500000000, A.D. 2024-Apr-27 00:00:00.0000, -3.804665776692845E+08, 7.755629594498567E+07, -4.573668130862309E+07,
2460434.500000000, A.D. 2024-May-04 00:00:00.0000, -3.808030946181511E+08, 6.642161047271929E+07, -4.374963847407626E+07,
2460441.500000000, A.D. 2024-May-11 00:00:00.0000, -3.808256433649305E+08, 5.523214425707538E+07, -4.172652352862683E+07,
2460448.500000000, A.D. 2024-May-18 00:00:00.0000, -3.805294257840959E+08, 4.399642933701020E+07, -3.966848110837920E+07,
2460455.500000000, A.D. 2024-May-25 00:00:00.0000, -3.799098210562639E+08, 3.272330716871776E+07, -3.757672665204189E+07,
2460462.500000000, A.D. 2024-Jun-01 00:00:00.0000, -3.789624042925894E+08, 2.142193102024199E+07, -3.545254842180489E+07,
2460469.500000000, A.D. 2024-Jun-08 00:00:00.0000, -3.776829658123833E+08, 1.010176729298157E+07, -3.329730947833710E+07,
2460476.500000000, A.D. 2024-Jun-15 00:00:00.0000, -3.760675306595641E+08, -1.227403791731732E+06, -3.111244958100723E+07,
2460483.500000000, A.D. 2024-Jun-22 00:00:00.0000, -3.741123793382192E+08, -1.255548707831521E+07, -2.889948680239893E+07,
2460490.500000000, A.D. 2024-Jun-29 00:00:00.0000, -3.718140718549708E+08, -2.387207287366075E+07, -2.666001878748891E+07,
2460497.500000000, A.D. 2024-Jul-06 00:00:00.0000, -3.691694723804184E+08, -3.516644144641297E+07, -2.439572407706749E+07,
2460504.500000000, A.D. 2024-Jul-13 00:00:00.0000, -3.661757725216224E+08, -4.642756892516078E+07, -2.210836341588106E+07,
2460511.500000000, A.D. 2024-Jul-20 00:00:00.0000, -3.628305151138134E+08, -5.764413357080263E+07, -1.979978073982645E+07,
2460518.500000000, A.D. 2024-Jul-27 00:00:00.0000, -3.591316190973955E+08, -6.880452351010029E+07, -1.747190383060949E+07,
2460525.500000000, A.D. 2024-Aug-03 00:00:00.0000, -3.550774051056359E+08, -7.989684643037105E+07, -1.512674466336811E+07,
2460532.500000000, A.D. 2024-Aug-10 00:00:00.0000, -3.506666214783021E+08, -9.090894135832775E+07, -1.276639943120643E+07,
2460539.500000000, A.D. 2024-Aug-17 00:00:00.0000, -3.458984705139236E+08, -1.018283926125064E+08, -1.039304821612822E+07,
2460546.500000000, A.D. 2024-Aug-24 00:00:00.0000, -3.407726347702443E+08, -1.126425460544933E+08, -8.008954276908197E+06,
2460553.500000000, A.D. 2024-Aug-31 00:00:00.0000, -3.352893031119355E+08, -1.233385277951308E+08, -5.616462935978040E+06,
2460560.500000000, A.D. 2024-Sep-07 00:00:00.0000, -3.294491959352015E+08, -1.339032653156794E+08, -3.218000056597233E+06,
2460567.500000000, A.D. 2024-Sep-14 00:00:00.0000, -3.232535892645202E+08, -1.443235100827946E+08, -8.160700072998405E+05,
2460574.500000000, A.D. 2024-Sep-21 00:00:00.0000, -3.167043395184668E+08, -1.545858613016852E+08, 1.586747133151844E+06,
2460581.500000000, A.D. 2024-Sep-28 00:00:00.0000, -3.098039091883536E+08, -1.646767940693394E+08, 3.987798936004318E+06,
2460588.500000000, A.D. 2024-Oct-05 00:00:00.0000, -3.025553895034449E+08, -1.745826919327506E+08, 6.384364234260373E+06,
2460595.500000000, A.D. 2024-Oct-12 00:00:00.0000, -2.949625201693377E+08, -1.842898808464264E+08, 8.773657282795794E+06,
2460602.500000000, A.D. 2024-Oct-19 00:00:00.0000, -2.870297076392435E+08, -1.937846647429397E+08, 1.115283262106945E+07,
2460609.500000000, A.D. 2024-Oct-26 00:00:00.0000, -2.787620416500856E+08, -2.030533634314634E+08, 1.351899058540614E+07,
2460616.500000000, A.D. 2024-Nov-02 00:00:00.0000, -2.701653094654600E+08, -2.120823528546719E+08, 1.586918343796956E+07,
2460623.500000000, A.D. 2024-Nov-09 00:00:00.0000, -2.612460074328732E+08, -2.208581075283355E+08, 1.820042210157671E+07,
2460630.500000000, A.D. 2024-Nov-16 00:00:00.0000, -2.520113495398794E+08, -2.293672449684740E+08, 2.050968348721371E+07,
2460637.500000000, A.D. 2024-Nov-23 00:00:00.0000, -2.424692726433383E+08, -2.375965719215985E+08, 2.279391838707565E+07,
2460644.500000000, A.D. 2024-Nov-30 00:00:00.0000, -2.326284379015759E+08, -2.455331321677943E+08, 2.505005988320176E+07,
2460651.500000000, A.D. 2024-Dec-07 00:00:00.0000, -2.224982277513891E+08, -2.531642551653332E+08, 2.727503223148198E+07,
2460658.500000000, A.D. 2024-Dec-14 00:00:00.0000, -2.120887389085636E+08, -2.604776039654305E+08, 2.946576033904234E+07,
2460665.500000000, A.D. 2024-Dec-21 00:00:00.0000, -2.014107735341519E+08, -2.674612232572603E+08, 3.161917989180160E+07,
2460672.500000000, A.D. 2024-Dec-28 00:00:00.0000, -1.904758264591904E+08, -2.741035901037005E+08, 3.373224764573586E+07,
2460679.500000000, A.D. 2025-Jan-04 00:00:00.0000, -1.792960657846852E+08, -2.803936645621110E+08, 3.580195176744553E+07,
2460686.500000000, A.D. 2025-Jan-11 00:00:00.0000, -1.678843086428620E+08, -2.863209380794475E+08, 3.782532244911845E+07,
2460693.500000000, A.D. 2025-Jan-18 00:00:00.0000, -1.562539930540669E+08, -2.918754801149928E+08, 3.979944272215492E+07,
2460700.500000000, A.D. 2025-Jan-25 00:00:00.0000, -1.444191457088313E+08, -2.970479829941746E+08, 4.172145931716625E+07,
2460707.500000000, A.D. 2025-Feb-01 00:00:00.0000, -1.323943456162774E+08, -3.018298045572859E+08, 4.358859345449871E+07,
2460714.500000000, A.D. 2025-Feb-08 00:00:00.0000, -1.201946837514237E+08, -3.062130081314586E+08, 4.539815146323113E+07,
$$EOE